COSMOS 1933             
1 18958U 88020A   25364.29655576  .00008121  00000+0  40617-3 0  9996
2 18958  82.5135 319.5300 0006450  83.7736 276.4232 15.17275278 39707
SL-3 R/B                
1 19046U 88032B   25364.25444303  .00007808  00000+0  37316-3 0  9991
2 19046  97.5092 342.8572 0028281 114.2092 246.2103 15.18935269 41568
SL-16 R/B               
1 19120U 88039B   25364.29242737  .00000057  00000+0  49566-4 0  9992
2 19120  71.0125 215.2854 0019544  86.2037 274.1322 14.19600084948530
COSMOS 1953             
1 19210U 88050A   25363.34859606  .00008063  00000+0  30114-3 0  9992
2 19210  82.5080 228.9139 0012535  18.6006 341.5688 15.27141359 27045
SL-8 R/B                
1 19257U 88053B   25364.14099372  .00000399  00000+0  13798-3 0  9994
2 19257  74.0463 240.6497 0018981  78.2137  36.7188 14.38870886966598
COSMOS 1975             
1 19573U 88093A   25364.01984113  .00011102  00000+0  42000-3 0  9993
2 19573  82.5191 187.5259 0012853  58.5353 301.7140 15.26740194  8775
SL-14 R/B               
1 19574U 88093B   25364.28725917  .00000907  00000+0  10185-3 0  9998
2 19574  82.5320 107.2011 0019232 267.6123 150.6998 14.85571131990736
SL-16 R/B               
1 19650U 88102B   25364.25862285 -.00000100  00000+0 -26533-4 0  9993
2 19650  71.0006 297.5821 0012053 121.7765 238.4534 14.16142923917066
INTERCOSMOS 24          
1 20261U 89080A   25364.14238571  .00000872  00000+0  24771-3 0  9997
2 20261  82.6062 149.6395 1189000  94.1682 279.5883 12.59468370658043
SL-14 R/B               
1 20262U 89080C   25364.10535656  .00000473  00000+0  14055-3 0  9999
2 20262  82.5911 217.8717 1230288 343.9044  12.6000 12.50427444651457
DELTA 1 R/B             
1 20323U 89089B   25364.16046045  .00000603  00000+0  15815-3 0  9991
2 20323  97.0741 217.6364 0068702 343.5758  16.3214 14.50588222885653
ARIANE 40 R/B           
1 20443U 90005H   25364.18225988  .00000481  00000+0  16682-3 0  9998
2 20443  98.3220  61.8653 0010998  58.2875 301.9384 14.39812559882801
